ONEWEB-0208             
1 48243U 21031AK  24333.45258965 -.00000132  00000+0 -39015-3 0  9995
2 48243  87.9024  42.2011 0001614 102.5411 257.5899 13.14502181173988
ONEWEB-0200             
1 48244U 21031AL  24334.48176308  .00000147  00000+0  36138-3 0  9997
2 48244  87.9026  41.9921 0001655 102.4302 257.7013 13.14501530174056
ONEWEB-0217             
1 48245U 21031AM  24333.66033312  .00000177  00000+0  44236-3 0  9995
2 48245  87.9022  42.1394 0001467 102.6571 257.4723 13.14501679173880
ONEWEB-0211             
1 48767U 21045A   24333.53271947 -.00000033  00000+0 -12248-3 0  9994
2 48767  87.9082  11.7839 0001690  89.5163 270.6161 13.15548330171178
ONEWEB-0223             
1 48768U 21045B   24334.08731980  .00000139  00000+0  33441-3 0  9997
2 48768  87.9081  11.6866 0001654  78.6071 281.5245 13.15547304171246
ONEWEB-0230             
1 48769U 21045C   24333.52639399 -.00000100  00000+0 -29995-3 0  9996
2 48769  87.9085  11.8670 0001934  93.1388 266.9963 13.15547533170292
ONEWEB-0237             
1 48770U 21045D   24333.59136583 -.00000080  00000+0 -24765-3 0  9999
2 48770  87.9093  11.7943 0001720  85.1683 274.9644 13.15547620170020
ONEWEB-0235             
1 48771U 21045E   24333.41390346  .00000173  00000+0  42672-3 0  9998
2 48771  87.9082  11.8271 0001795  73.9841 286.1487 13.15547411169999
ONEWEB-0242             
1 48772U 21045F   24333.55968228  .00000249  00000+0  62764-3 0  9992
2 48772  87.9079  11.7853 0001902  89.2875 270.8474 13.15547111171185
ONEWEB-0241             
1 48773U 21045G   24334.38361311  .00000035  00000+0  59812-4 0  9999
2 48773  87.9092  11.6841 0001487  90.1426 269.9875 13.15549257171208
ONEWEB-0243             
1 48774U 21045H   24333.35052024  .00000121  00000+0  28826-3 0  9990
2 48774  87.9090  11.8494 0001843  78.6912 281.4425 13.15551054169968
ONEWEB-0222             
1 48775U 21045J   24334.47473567  .00000092  00000+0  20971-3 0  9994
2 48775  87.9078  11.6122 0001634  91.0830 269.0488 13.15546827171277
ONEWEB-0244             
1 48776U 21045K   24334.04454152  .00000103  00000+0  24061-3 0  9994
2 48776  87.9079  11.6778 0001934  91.4732 268.6620 13.15547807171782
ONEWEB-0247             
1 48777U 21045L   24334.11740948  .00000097  00000+0  22282-3 0  9999
2 48777  87.9092  11.7177 0002000  63.7894 296.3442 13.15546618171248
ONEWEB-0245             
1 48778U 21045M   24333.50420639 -.00000072  00000+0 -22559-3 0  9996
2 48778  87.9077  11.8178 0001515  93.8089 266.3214 13.15548506171134
ONEWEB-0229             
1 48779U 21045N   24334.41215231  .00000203  00000+0  50397-3 0  9993
2 48779  87.9083  11.6335 0002010  91.3971 268.7390 13.15547062171282
ONEWEB-0228             
1 48780U 21045P   24333.53194150 -.00000005  00000+0 -48405-4 0  9993
2 48780  87.9077  11.7871 0001807  90.6406 269.4931 13.15546824171083
ONEWEB-0232             
1 48781U 21045Q   24334.34400555  .00000165  00000+0  40446-3 0  9994
2 48781  87.9077  11.6324 0001938  94.4755 265.6596 13.15547243171508
ONEWEB-0231             
1 48782U 21045R   24333.40914742  .00000211  00000+0  52728-3 0  9997
2 48782  87.9090  11.8730 0001746  85.9249 274.2081 13.15547690169954
ONEWEB-0234             
1 48783U 21045S   24334.03741319  .00000121  00000+0  28779-3 0  9995
2 48783  87.9080  11.6945 0001669 138.3063 221.8195 13.15547579171303
ONEWEB-0238             
1 48784U 21045T   24333.38298233 -.00000022  00000+0 -92942-4 0  9991
2 48784  87.9080  11.8408 0001772 100.7655 259.3675 13.15549216169985
ONEWEB-0240             
1 48785U 21045U   24333.39250660  .00000092  00000+0  20919-3 0  9994
2 48785  87.9083  11.8059 0001476  85.5144 274.6154 13.15545785170010
ONEWEB-0246             
1 48786U 21045V   24333.53907214  .00000021  00000+0  22843-4 0  9996
2 48786  87.9080  11.7835 0001913  90.0733 270.0616 13.15547135171026
ONEWEB-0210             
1 48787U 21045W   24333.58978285  .00000005  00000+0 -21895-4 0  9997
2 48787  87.9081  11.7767 0002126  74.0662 286.0703 13.15547990169954
ONEWEB-0214             
1 48788U 21045X   24333.52323059 -.00000058  00000+0 -18838-3 0  9996
2 48788  87.9080  11.7786 0002187  83.3472 276.7907 13.15547776171030
ONEWEB-0221             
1 48789U 21045Y   24333.52955479 -.00000241  00000+0 -67531-3 0  9992
2 48789  87.9084  11.7992 0001632  90.6596 269.4721 13.15547447171146
ONEWEB-0213             
1 48790U 21045Z   24334.05087557  .00000087  00000+0  19590-3 0  9994
2 48790  87.9084  11.7070 0001719  85.0122 275.1204 13.15547564171267
ONEWEB-0212             
1 48791U 21045AA  24334.02789809  .00000133  00000+0  31957-3 0  9994
2 48791  87.9081  11.6973 0001888  98.9114 261.2230 13.15547177171262
ONEWEB-0227             
1 48792U 21045AB  24334.40739264  .00000193  00000+0  47833-3 0  9993
2 48792  87.9090  11.6366 0001806  92.2433 267.8904 13.15546487171252
ONEWEB-0226             
1 48793U 21045AC  24334.40104512  .00000205  00000+0  51031-3 0  9995
2 48793  87.9084  11.6431 0001911  81.6856 278.4491 13.15550781171214
ONEWEB-0224             
1 48794U 21045AD  24333.37586591  .00000008  00000+0 -12868-4 0  9990
2 48794  87.9089  11.8739 0000780 101.3852 258.7366 13.15549468169884
ONEWEB-0233             
1 48795U 21045AE  24333.53352641 -.00000017  00000+0 -79253-4 0  9998
2 48795  87.9084  11.8548 0001586  87.4164 272.7148 13.15546736171032
ONEWEB-0190             
1 48796U 21045AF  24333.52006085 -.00000077  00000+0 -23825-3 0  9995
2 48796  87.9088  11.8194 0001698  64.9136 295.2171 13.15548218171119
ONEWEB-0236             
1 48797U 21045AG  24333.53748868 -.00000007  00000+0 -53184-4 0  9994
2 48797  87.9090  11.8152 0001678  91.9727 268.1595 13.15547168171001
ONEWEB-0248             
1 48798U 21045AH  24333.39804624  .00000203  00000+0  50440-3 0  9999
2 48798  87.9077  11.8196 0001200  78.2430 281.8835 13.15547499170022
ONEWEB-0225             
1 48799U 21045AJ  24334.40898282  .00000184  00000+0  45516-3 0  9992
2 48799  87.9088  11.6391 0001603  83.0887 277.0425 13.15547635171303
ONEWEB-0215             
1 48800U 21045AK  24333.39012571  .00000013  00000+0  13509-5 0  9991
2 48800  87.9079  11.8057 0001397  69.5047 290.6233 13.15546994169902
ONEWEB-0216             
1 48801U 21045AL  24333.55173977  .00000108  00000+0  25364-3 0  9993
2 48801  87.9078  11.8167 0002029  91.6810 268.4552 13.15547988171051
ONEWEB-0239             
1 48802U 21045AM  24334.08889431  .00000165  00000+0  40459-3 0  9997
2 48802  87.9090  11.7003 0001101  70.9342 289.1907 13.15546468171184
ONEWEB-0249             
1 48967U 21060A   24333.33073335  .00000068  00000+0  14472-3 0  9999
2 48967  87.9084 341.5126 0001740  92.7967 267.3363 13.16593065165153
ONEWEB-0250             
1 48968U 21060B   24333.73147762  .00000038  00000+0  56198-4 0  9999
2 48968  87.9081 341.0334 0001137  72.8740 287.2520 13.25634083165292
ONEWEB-0252             
1 48970U 21060D   24333.74239846  .00000026  00000+0  33167-4 0  9996
2 48970  87.9083 341.4239 0002161  88.3662 271.7716 13.16593925165258
ONEWEB-0253             
1 48971U 21060E   24333.73130224  .00000042  00000+0  75568-4 0  9995
2 48971  87.9083 341.4346 0001757  83.1207 277.0124 13.16594882165183
ONEWEB-0254             
1 48972U 21060F   24333.74079662 -.00000108  00000+0 -31662-3 0  9996
2 48972  87.9083 341.4132 0001444  74.2909 285.8381 13.16593183165185
ONEWEB-0255             
1 48973U 21060G   24333.32281572  .00000065  00000+0  13680-3 0  9996
2 48973  87.9083 341.5304 0001570  81.7823 278.3486 13.16591944165205
ONEWEB-0256             
1 48974U 21060H   24334.48889646  .00000106  00000+0  24400-3 0  9999
2 48974  87.9068 341.3066 0001939  89.6791 270.4562 13.16595136166613
ONEWEB-0257             
1 48975U 21060J   24334.06537054 -.00000099  00000+0 -29182-3 0  9992
2 48975  87.9077 341.3567 0001844  84.4583 275.6758 13.16592421166514
ONEWEB-0258             
1 48976U 21060K   24334.44692909 -.00000040  00000+0 -13773-3 0  9991
2 48976  87.9073 341.3084 0001735  90.3936 269.7394 13.16592063166569
ONEWEB-0259             
1 48977U 21060L   24333.45263115 -.00000172  00000+0 -48333-3 0  9991
2 48977  87.9082 341.4912 0001669  90.1208 270.0114 13.16591576165187
ONEWEB-0260             
1 48978U 21060M   24333.74791505 -.00000037  00000+0 -13116-3 0  9994
2 48978  87.9082 341.4623 0002368  86.6033 273.5369 13.16594140165203
ONEWEB-0261             
1 48979U 21060N   24334.02153123  .00000113  00000+0  26166-3 0  9997
2 48979  87.9086 341.4060 0001870  72.7077 287.4258 13.16521348166598
ONEWEB-0262             
1 48980U 21060P   24334.00205906  .00000107  00000+0  24714-3 0  9994
2 48980  87.9086 341.3688 0001408  87.8131 272.3161 13.16596448166555
ONEWEB-0263             
1 48981U 21060Q   24334.03369907  .00000109  00000+0  25250-3 0  9998
2 48981  87.9088 341.3842 0001631  77.2420 282.8893 13.16592029166528
ONEWEB-0264             
1 48982U 21060R   24333.31093129  .00000082  00000+0  18130-3 0  9998
2 48982  87.9083 341.5382 0001791  89.5691 270.5645 13.16591539165138
ONEWEB-0266             
1 48984U 21060T   24334.32026507  .00000090  00000+0  20299-3 0  9996
2 48984  87.9081 341.3104 0001611  94.1613 265.9702 13.16594585166558
ONEWEB-0267             
1 48985U 21060U   24333.72339407  .00000132  00000+0  31204-3 0  9991
2 48985  87.9083 341.4311 0001801  80.7943 279.3391 13.16593486165180
ONEWEB-0268             
1 48986U 21060V   24333.46372520  .00000071  00000+0  15281-3 0  9995
2 48986  87.9082 341.4893 0001966  89.2884 270.8472 13.16593243165418
ONEWEB-0269             
1 48987U 21060W   24333.74870129 -.00000422  00000+0 -11387-2 0  9999
2 48987  87.9085 341.4624 0001784  91.5432 268.5903 13.16593286165226
ONEWEB-0270             
1 48988U 21060X   24333.46213173  .00000097  00000+0  22049-3 0  9993
2 48988  87.9081 341.4958 0001653  77.4028 282.7288 13.16590921165229
